[{"OBJECT_NAME":"ONEWEB-0040","OBJECT_ID":"2020-008S","EPOCH":"2026-03-09T22:29:59.694144","MEAN_MOTION":13.10375918,"ECCENTRICITY":0.00017991,"INCLINATION":87.8774,"RA_OF_ASC_NODE":56.041,"ARG_OF_PERICENTER":89.8763,"MEAN_ANOMALY":270.2571,"EPHEMERIS_TYPE":0,"CLASSIFICATION_TYPE":"U","NORAD_CAT_ID":45147,"ELEMENT_SET_NO":999,"REV_AT_EPOCH":29486,"BSTAR":0.0010964113,"MEAN_MOTION_DOT":3.95e-6,"MEAN_MOTION_DDOT":0},{"OBJECT_NAME":"UNKNOWN","OBJECT_ID":"","EPOCH":"2026-03-05T06:46:30.248256","MEAN_MOTION":13.12592746,"ECCENTRICITY":0.05994259,"INCLINATION":72.7164,"RA_OF_ASC_NODE":279.0707,"ARG_OF_PERICENTER":216.3381,"MEAN_ANOMALY":139.557,"EPHEMERIS_TYPE":0,"CLASSIFICATION_TYPE":"U","NORAD_CAT_ID":270199,"ELEMENT_SET_NO":999,"REV_AT_EPOCH":29794,"BSTAR":0.0037122265,"MEAN_MOTION_DOT":3.286e-5,"MEAN_MOTION_DDOT":0}]
